[Satellite]
VERSION=1.1
NAME=STARLINK-1224
NICKNAME=STARLINK-1224
TLE1=1 45186U 20012J   20078.25001157  .00291655  00000-0  85702-2 0  9999
TLE2=2 45186  52.9990 125.3830 0001505  67.7376 135.1773 15.33431041  5242
STATUS=0
